[{"OBJECT_NAME":"STARLINK-4097","OBJECT_ID":"2022-086Z","EPOCH":"2026-03-09T15:47:41.080704","MEAN_MOTION":15.0884524,"ECCENTRICITY":0.0001261,"INCLINATION":53.2179,"RA_OF_ASC_NODE":194.2629,"ARG_OF_PERICENTER":86.5063,"MEAN_ANOMALY":273.6074,"EPHEMERIS_TYPE":0,"CLASSIFICATION_TYPE":"U","NORAD_CAT_ID":53265,"ELEMENT_SET_NO":999,"REV_AT_EPOCH":20106,"BSTAR":-7.938136e-6,"MEAN_MOTION_DOT":-4.14e-6,"MEAN_MOTION_DDOT":0},{"OBJECT_NAME":"CZ-2C DEB","OBJECT_ID":"2011-030F","EPOCH":"2026-03-09T18:15:45.395712","MEAN_MOTION":15.09717889,"ECCENTRICITY":0.00353547,"INCLINATION":98.459,"RA_OF_ASC_NODE":350.9929,"ARG_OF_PERICENTER":109.3287,"MEAN_ANOMALY":305.6279,"EPHEMERIS_TYPE":0,"CLASSIFICATION_TYPE":"U","NORAD_CAT_ID":37735,"ELEMENT_SET_NO":999,"REV_AT_EPOCH":78307,"BSTAR":0.0021378399,"MEAN_MOTION_DOT":0.00035046,"MEAN_MOTION_DDOT":0}]
